FALCONSAT-6             
1 43815U 18099BK  26068.72544389  .00005029  00000+0  19477-3 0  9998
2 43815  97.3865 145.8165 0014370 297.0944 181.0714 15.26532865398556
STARLINK-32661          
1 62899U 25024W   26068.40879765  .00024191  00000+0  88570-3 0  9992
2 62899  42.9940 326.8932 0000085 165.8830 194.2024 15.27581087 62229
